[
  {
    "COMMENT": "GENERATED VIA SPACETRACK.ORG API",
    "ORIGINATOR": "18 SPCS",
    "NORAD_CAT_ID": "43682",
    "OBJECT_NAME": "H-2A R/B",
    "OBJECT_TYPE": "ROCKET BODY",
    "CLASSIFICATION_TYPE": "U",
    "INTLDES": "18084L",
    "EPOCH": "2023-06-09 01:42:19",
    "EPOCH_MICROSECONDS": "37952",
    "MEAN_MOTION": "15.08452209",
    "ECCENTRICITY": "0.0051423",
    "INCLINATION": "98.8946",
    "RA_OF_ASC_NODE": "182.9219",
    "ARG_OF_PERICENTER": "169.1539",
    "MEAN_ANOMALY": "191.0807",
    "EPHEMERIS_TYPE": "0",
    "ELEMENT_SET_NO": "999",
    "REV_AT_EPOCH": "25299",
    "BSTAR": "0.00036052",
    "MEAN_MOTION_DOT": "0.00005705",
    "MEAN_MOTION_DDOT": "0",
    "FILE": "3928876",
    "TLE_LINE0": "0 H-2A R/B",
    "TLE_LINE1": "1 43682U 18084L   23160.07105368  .00005705  00000-0  36052-3 0  9992",
    "TLE_LINE2": "2 43682  98.8946 182.9219 0051423 169.1539 191.0807 15.08452209252999",
    "OBJECT_ID": "2018-084L",
    "OBJECT_NUMBER": "43682",
    "SEMIMAJOR_AXIS": "6919.066",
    "PERIOD": "95.462",
    "APOGEE": "576.511",
    "PERIGEE": "505.351",
    "DECAYED": "0"
  },
  {
    "COMMENT": "GENERATED VIA SPACETRACK.ORG API",
    "ORIGINATOR": "18 SPCS",
    "NORAD_CAT_ID": "43682",
    "OBJECT_NAME": "H-2A R/B",
    "OBJECT_TYPE": "ROCKET BODY",
    "CLASSIFICATION_TYPE": "U",
    "INTLDES": "18084L",
    "EPOCH": "2023-06-09 19:13:02",
    "EPOCH_MICROSECONDS": "508672",
    "MEAN_MOTION": "15.08460847",
    "ECCENTRICITY": "0.0051473",
    "INCLINATION": "98.8948",
    "RA_OF_ASC_NODE": "183.7664",
    "ARG_OF_PERICENTER": "166.7166",
    "MEAN_ANOMALY": "193.5428",
    "EPHEMERIS_TYPE": "0",
    "ELEMENT_SET_NO": "999",
    "REV_AT_EPOCH": "25310",
    "BSTAR": "0.0003594",
    "MEAN_MOTION_DOT": "0.00005688",
    "MEAN_MOTION_DDOT": "0",
    "FILE": "3929125",
    "TLE_LINE0": "0 H-2A R/B",
    "TLE_LINE1": "1 43682U 18084L   23160.80072348  .00005688  00000-0  35940-3 0  9999",
    "TLE_LINE2": "2 43682  98.8948 183.7664 0051473 166.7166 193.5428 15.08460847253105",
    "OBJECT_ID": "2018-084L",
    "OBJECT_NUMBER": "43682",
    "SEMIMAJOR_AXIS": "6919.040",
    "PERIOD": "95.462",
    "APOGEE": "576.519",
    "PERIGEE": "505.290",
    "DECAYED": "0"
  },
  {
    "COMMENT": "GENERATED VIA SPACETRACK.ORG API",
    "ORIGINATOR": "18 SPCS",
    "NORAD_CAT_ID": "43682",
    "OBJECT_NAME": "H-2A R/B",
    "OBJECT_TYPE": "ROCKET BODY",
    "CLASSIFICATION_TYPE": "U",
    "INTLDES": "18084L",
    "EPOCH": "2023-06-09 23:59:36",
    "EPOCH_MICROSECONDS": "127680",
    "MEAN_MOTION": "15.0846304",
    "ECCENTRICITY": "0.0051494",
    "INCLINATION": "98.8948",
    "RA_OF_ASC_NODE": "183.9967",
    "ARG_OF_PERICENTER": "166.0488",
    "MEAN_ANOMALY": "194.2172",
    "EPHEMERIS_TYPE": "0",
    "ELEMENT_SET_NO": "999",
    "REV_AT_EPOCH": "25313",
    "BSTAR": "0.00035266",
    "MEAN_MOTION_DOT": "0.0000558",
    "MEAN_MOTION_DDOT": "0",
    "FILE": "3929228",
    "TLE_LINE0": "0 H-2A R/B",
    "TLE_LINE1": "1 43682U 18084L   23160.99972370  .00005580  00000-0  35266-3 0  9995",
    "TLE_LINE2": "2 43682  98.8948 183.9967 0051494 166.0488 194.2172 15.08463040253131",
    "OBJECT_ID": "2018-084L",
    "OBJECT_NUMBER": "43682",
    "SEMIMAJOR_AXIS": "6919.033",
    "PERIOD": "95.461",
    "APOGEE": "576.527",
    "PERIGEE": "505.269",
    "DECAYED": "0"
  },
  {
    "COMMENT": "GENERATED VIA SPACETRACK.ORG API",
    "ORIGINATOR": "18 SPCS",
    "NORAD_CAT_ID": "43682",
    "OBJECT_NAME": "H-2A R/B",
    "OBJECT_TYPE": "ROCKET BODY",
    "CLASSIFICATION_TYPE": "U",
    "INTLDES": "18084L",
    "EPOCH": "2023-06-10 12:43:45",
    "EPOCH_MICROSECONDS": "646752",
    "MEAN_MOTION": "15.08468625",
    "ECCENTRICITY": "0.0051537",
    "INCLINATION": "98.895",
    "RA_OF_ASC_NODE": "184.6111",
    "ARG_OF_PERICENTER": "164.3006",
    "MEAN_ANOMALY": "195.983",
    "EPHEMERIS_TYPE": "0",
    "ELEMENT_SET_NO": "999",
    "REV_AT_EPOCH": "25321",
    "BSTAR": "0.00033795",
    "MEAN_MOTION_DOT": "0.00005345",
    "MEAN_MOTION_DDOT": "0",
    "FILE": "3929709",
    "TLE_LINE0": "0 H-2A R/B",
    "TLE_LINE1": "1 43682U 18084L   23161.53038943  .00005345  00000-0  33795-3 0  9999",
    "TLE_LINE2": "2 43682  98.8950 184.6111 0051537 164.3006 195.9830 15.08468625253210",
    "OBJECT_ID": "2018-084L",
    "OBJECT_NUMBER": "43682",
    "SEMIMAJOR_AXIS": "6919.016",
    "PERIOD": "95.461",
    "APOGEE": "576.539",
    "PERIGEE": "505.222",
    "DECAYED": "0"
  },
  {
    "COMMENT": "GENERATED VIA SPACETRACK.ORG API",
    "ORIGINATOR": "18 SPCS",
    "NORAD_CAT_ID": "43682",
    "OBJECT_NAME": "H-2A R/B",
    "OBJECT_TYPE": "ROCKET BODY",
    "CLASSIFICATION_TYPE": "U",
    "INTLDES": "18084L",
    "EPOCH": "2023-06-10 19:05:50",
    "EPOCH_MICROSECONDS": "344512",
    "MEAN_MOTION": "15.08471753",
    "ECCENTRICITY": "0.0051557",
    "INCLINATION": "98.895",
    "RA_OF_ASC_NODE": "184.9181",
    "ARG_OF_PERICENTER": "163.4154",
    "MEAN_ANOMALY": "196.8771",
    "EPHEMERIS_TYPE": "0",
    "ELEMENT_SET_NO": "999",
    "REV_AT_EPOCH": "25325",
    "BSTAR": "0.00034694",
    "MEAN_MOTION_DOT": "0.0000549",
    "MEAN_MOTION_DDOT": "0",
    "FILE": "3929969",
    "TLE_LINE0": "0 H-2A R/B",
    "TLE_LINE1": "1 43682U 18084L   23161.79572158  .00005490  00000-0  34694-3 0  9998",
    "TLE_LINE2": "2 43682  98.8950 184.9181 0051557 163.4154 196.8771 15.08471753253250",
    "OBJECT_ID": "2018-084L",
    "OBJECT_NUMBER": "43682",
    "SEMIMAJOR_AXIS": "6919.006",
    "PERIOD": "95.461",
    "APOGEE": "576.544",
    "PERIGEE": "505.199",
    "DECAYED": "0"
  },
  {
    "COMMENT": "GENERATED VIA SPACETRACK.ORG API",
    "ORIGINATOR": "18 SPCS",
    "NORAD_CAT_ID": "43682",
    "OBJECT_NAME": "H-2A R/B",
    "OBJECT_TYPE": "ROCKET BODY",
    "CLASSIFICATION_TYPE": "U",
    "INTLDES": "18084L",
    "EPOCH": "2023-06-11 03:03:26",
    "EPOCH_MICROSECONDS": "142624",
    "MEAN_MOTION": "15.08475687",
    "ECCENTRICITY": "0.0051583",
    "INCLINATION": "98.8948",
    "RA_OF_ASC_NODE": "185.3017",
    "ARG_OF_PERICENTER": "162.3206",
    "MEAN_ANOMALY": "197.9829",
    "EPHEMERIS_TYPE": "0",
    "ELEMENT_SET_NO": "999",
    "REV_AT_EPOCH": "25330",
    "BSTAR": "0.00035049",
    "MEAN_MOTION_DOT": "0.00005548",
    "MEAN_MOTION_DDOT": "0",
    "FILE": "3930070",
    "TLE_LINE0": "0 H-2A R/B",
    "TLE_LINE1": "1 43682U 18084L   23162.12738591  .00005548  00000-0  35049-3 0  9990",
    "TLE_LINE2": "2 43682  98.8948 185.3017 0051583 162.3206 197.9829 15.08475687253307",
    "OBJECT_ID": "2018-084L",
    "OBJECT_NUMBER": "43682",
    "SEMIMAJOR_AXIS": "6918.994",
    "PERIOD": "95.461",
    "APOGEE": "576.549",
    "PERIGEE": "505.169",
    "DECAYED": "0"
  },
  {
    "COMMENT": "GENERATED VIA SPACETRACK.ORG API",
    "ORIGINATOR": "18 SPCS",
    "NORAD_CAT_ID": "43682",
    "OBJECT_NAME": "H-2A R/B",
    "OBJECT_TYPE": "ROCKET BODY",
    "CLASSIFICATION_TYPE": "U",
    "INTLDES": "18084L",
    "EPOCH": "2023-06-11 12:36:33",
    "EPOCH_MICROSECONDS": "29856",
    "MEAN_MOTION": "15.08480059",
    "ECCENTRICITY": "0.0051562",
    "INCLINATION": "98.8946",
    "RA_OF_ASC_NODE": "185.7618",
    "ARG_OF_PERICENTER": "160.9929",
    "MEAN_ANOMALY": "199.3235",
    "EPHEMERIS_TYPE": "0",
    "ELEMENT_SET_NO": "999",
    "REV_AT_EPOCH": "25336",
    "BSTAR": "0.00035515",
    "MEAN_MOTION_DOT": "0.00005624",
    "MEAN_MOTION_DDOT": "0",
    "FILE": "3930529",
    "TLE_LINE0": "0 H-2A R/B",
    "TLE_LINE1": "1 43682U 18084L   23162.52538229  .00005624  00000-0  35515-3 0  9993",
    "TLE_LINE2": "2 43682  98.8946 185.7618 0051562 160.9929 199.3235 15.08480059253361",
    "OBJECT_ID": "2018-084L",
    "OBJECT_NUMBER": "43682",
    "SEMIMAJOR_AXIS": "6918.981",
    "PERIOD": "95.460",
    "APOGEE": "576.521",
    "PERIGEE": "505.170",
    "DECAYED": "0"
  },
  {
    "COMMENT": "GENERATED VIA SPACETRACK.ORG API",
    "ORIGINATOR": "18 SPCS",
    "NORAD_CAT_ID": "43682",
    "OBJECT_NAME": "H-2A R/B",
    "OBJECT_TYPE": "ROCKET BODY",
    "CLASSIFICATION_TYPE": "U",
    "INTLDES": "18084L",
    "EPOCH": "2023-06-11 18:58:37",
    "EPOCH_MICROSECONDS": "538400",
    "MEAN_MOTION": "15.08483365",
    "ECCENTRICITY": "0.0051598",
    "INCLINATION": "98.8947",
    "RA_OF_ASC_NODE": "186.069",
    "ARG_OF_PERICENTER": "160.1211",
    "MEAN_ANOMALY": "200.2039",
    "EPHEMERIS_TYPE": "0",
    "ELEMENT_SET_NO": "999",
    "REV_AT_EPOCH": "25340",
    "BSTAR": "0.0003659",
    "MEAN_MOTION_DOT": "0.00005798",
    "MEAN_MOTION_DDOT": "0",
    "FILE": "3930737",
    "TLE_LINE0": "0 H-2A R/B",
    "TLE_LINE1": "1 43682U 18084L   23162.79071225  .00005798  00000-0  36590-3 0  9996",
    "TLE_LINE2": "2 43682  98.8947 186.0690 0051598 160.1211 200.2039 15.08483365253403",
    "OBJECT_ID": "2018-084L",
    "OBJECT_NUMBER": "43682",
    "SEMIMAJOR_AXIS": "6918.971",
    "PERIOD": "95.460",
    "APOGEE": "576.536",
    "PERIGEE": "505.135",
    "DECAYED": "0"
  },
  {
    "COMMENT": "GENERATED VIA SPACETRACK.ORG API",
    "ORIGINATOR": "18 SPCS",
    "NORAD_CAT_ID": "43682",
    "OBJECT_NAME": "H-2A R/B",
    "OBJECT_TYPE": "ROCKET BODY",
    "CLASSIFICATION_TYPE": "U",
    "INTLDES": "18084L",
    "EPOCH": "2023-06-12 01:20:42",
    "EPOCH_MICROSECONDS": "24480",
    "MEAN_MOTION": "15.08486218",
    "ECCENTRICITY": "0.0051625",
    "INCLINATION": "98.8946",
    "RA_OF_ASC_NODE": "186.3761",
    "ARG_OF_PERICENTER": "159.2394",
    "MEAN_ANOMALY": "201.0943",
    "EPHEMERIS_TYPE": "0",
    "ELEMENT_SET_NO": "999",
    "REV_AT_EPOCH": "25344",
    "BSTAR": "0.0003612",
    "MEAN_MOTION_DOT": "0.00005723",
    "MEAN_MOTION_DDOT": "0",
    "FILE": "3931287",
    "TLE_LINE0": "0 H-2A R/B",
    "TLE_LINE1": "1 43682U 18084L   23163.05604195  .00005723  00000-0  36120-3 0  9991",
    "TLE_LINE2": "2 43682  98.8946 186.3761 0051625 159.2394 201.0943 15.08486218253443",
    "OBJECT_ID": "2018-084L",
    "OBJECT_NUMBER": "43682",
    "SEMIMAJOR_AXIS": "6918.962",
    "PERIOD": "95.460",
    "APOGEE": "576.546",
    "PERIGEE": "505.108",
    "DECAYED": "0"
  }
]